#dP2020  2 19  0  0  0.00000000      96 __u+U ITR00 FIT  IAC
## 2093 259200.00000000   900.00000000 58898 0.0000000000000
+  114   C01C02C04C05C06C07C08C09C10C11C12C13C14C16C18C19C20
+        C21C22C23C24C25C26C27C28C29C30C32C33C34C35C36C37E01
+        E02E03E04E05E07E08E09E11E12E13E14E15E18E19E21E24E25
+        E26E27E30E31E33E36G01G02G03G04G05G06G07G08G09G10G11
+        G12G13G14G15G16G17G18G19G20G21G22G23G24G25G26G27G28
+        G29G30G31G32J01J02J03R01R02R03R04R05R07R08R09R11R12
+        R13R14R15R16R17R18R19R20R21R22R23R26  0  0  0  0  0
++        13  0 13 13  8  8  8  8  8  8  8  8  8  8  0  7  7
++         8  7  8  8  8  8  8  8  7  7  8  8  8  8  8  8  5
++         4  4  5  4  5  5  5  5  5  5  4  4  5  5  5  5  5
++         5  5  4  5  5  5  3  4  3  3  4  3  3  3  3  3  3
++         3  4  3  4  3  3  4  3  3  3  3  3  3  3  3  4  3
++         3  3  3  3  9  8  8  6  6  5  5  5  5  5  5  6  5
++         6  5  6  6  6  6  6  6  5  5  5  8  0  0  0  0  0
%c M  cc GPS ccc cccc cccc cccc cccc ccccc ccccc ccccc ccccc
%c cc cc ccc ccc cccc cccc cccc cccc ccccc ccccc ccccc ccccc
%f  0.0000000  0.000000000  0.00000000000  0.000000000000000
%f  0.0000000  0.000000000  0.00000000000  0.000000000000000
%i    0    0    0    0      0      0      0      0         0
%i    0    0    0    0      0      0      0      0         0
/* INFORMATION & ANALYSIS CENTER (IAC)            RAPID DATA
/* S/V CLOCKS ARE ALIGNED TO GNSS TIME                      
/* G:C1WC2W R:C1PC2P E:C1XC5X C:C2IC6I J:C1CC2S             
/* PCV:IGS14_2091 OL/AL:FES2004  NONE     YN ORB:CoN CLK:CoN
*  2020 02 19 21 30  0.00000000
PC01 -32335.151649  27055.091005   -820.220472    220.428279
PC02   4593.115497  41911.841486   1131.793449 999999.999999
PC04 -39609.661651  14416.815783   -415.042286   -416.469724
PC05  21882.173370  36057.586753   1392.966467   -370.316584
PC06  -7257.017625  34352.490516  24001.877168    244.563897
PC07 -17653.644147  22286.136278 -31056.109043    -84.500072
PC08 -23276.376546  34027.451495   8035.674336   -124.152527
PC09   1542.197870  40424.391611  12780.670662    345.845538
PC10  -2348.903478  25905.717991 -32999.720431   -677.151898
PC11  15351.159122   -156.627213  23367.744441   -192.491823
PC12  10963.596187  19894.528396  16234.331157    321.051087
PC13 -12344.125839  34944.513722  19953.793140    276.752594
PC14  25147.399327   5007.498108 -10920.188066    168.723529
PC16  -4218.179720  35878.147310  21944.438235   -769.832042
PC18  -4567.278141  25767.654520 -33105.095330 999999.999999
PC19 -21239.387829   2662.081033  17935.742516    330.326417
PC20 -25315.831757 -11399.246435   2967.289624   -737.280293
PC21  14364.085466  19178.386437  14307.744816    -92.466283
PC22  -4785.019873  15430.252956  22757.203810   -880.755279
PC23  14463.826358 -19667.324479  13522.146756   -896.085091
PC24  20701.433129   3047.120056 -18488.636866   -931.938129
PC25  24640.965650 -12732.405588  -3186.041307   -521.752542
PC26   5428.327125  15475.109143 -22582.235767    577.468207
PC27  -5868.938515 -25941.071002  -8421.401763    281.299435
PC28   6325.820156 -25577.277423   9208.497030    272.238502
PC29 -14366.370465  10825.322082 -21337.318602    189.953699
PC30 -14930.370871 -10867.884792 -20910.902811    274.461213
PC32 -14549.627529 -19069.404697 -14252.435830   -874.559288
PC33  21261.027974  -2723.268255 -17854.711120   -928.296277
PC34  15024.655369  10519.657345  21038.932690   -483.995030
PC35  -5550.725350  25738.624472  -9295.633696   -893.734327
PC36 -24965.520091  11997.362348   3412.584800   -828.417958
PC37  -4372.202636 -15938.028167  22501.433175   -876.914788
PE01  10949.110047 -16144.405839  22263.659407   -798.339190
PE02 -10832.871070  16159.866439 -22306.396605    113.900870
PE03  -1279.833712  21903.308038  19861.033472   -268.141960
PE04 -14767.560647 -25252.946555  -4508.588480   -469.224760
PE05 -16748.901598   5679.619932  23735.042602   -403.967075
PE07  22328.345619  13756.297711 -13714.148265   -343.316807
PE08  15085.901169  25087.014335   4346.475449   6217.960340
PE09 -22368.547867 -13594.267735  13836.093568   6150.878250
PE11 -15812.336230  -4405.147006 -24629.133064   1343.157351
PE12  -3479.706612 -22969.756828 -18319.975125   5943.093919
PE13  15649.988041   4614.737858  24709.661388    398.511600
PE14 -17721.416223  11277.976952 -24616.792031   -911.464889
PE15   3685.762626  22815.566183  18512.570598    876.708158
PE18   9457.545704 -15086.723218  16028.285940  -1008.939630
PE19   3026.377718 -20603.289417 -21032.965798     -1.461390
PE21  27002.326307  -8768.722734   8386.054161   -583.601925
PE24 -27323.400291  -4077.258352  10577.988897   5601.405279
PE25 -27043.382977   8708.955037  -8289.483440   -504.414721
PE26  18624.994146 -16426.709175  16119.977375   3510.126206
PE27  27399.120221   3860.684543 -10532.770869    278.826874
PE30  11454.763207  14350.464156 -23232.402422   4130.033052
PE31 -11694.227576 -14181.821467  23203.573787   -471.762746
PE33  10476.981046 -27642.230784  -1411.879578   -470.208395
PE36 -18443.197892  16335.770055 -16398.241949    596.155511
PG01  13725.725293 -21911.920469  -5455.636629   -300.364535
PG02 -19571.460546   9746.829501 -14379.551154   -407.819832
PG03   7353.702109 -13824.851117 -21496.823560    -98.488429
PG04   2622.487924 -22580.231891 -13710.899421    -51.215509
PG05 -24844.338694   2964.606677   9061.800585     -7.859266
PG06 -16081.779362  -2689.593348 -20920.261031   -212.525820
PG07  -1072.794417 -19039.624602  18573.322735   -218.216161
PG08   9642.850725 -13915.684740  20428.179509    -24.350514
PG09  -6238.924762 -25398.120254  -4642.023704   -159.323586
PG10  21163.934095  11628.704150  11400.475518   -250.864286
PG11  12555.695374 -21399.799769   9376.013849   -356.432096
PG12 -11126.078503  11894.140028 -21173.502970    149.420791
PG13 -14087.033887   5451.802992  21718.562468    -11.620213
PG14  16108.512902  10015.629541 -18334.451717    -31.394542
PG15  -8539.487865  15532.260481  19364.107533   -250.418427
PG16  24998.114547    123.710400   9414.277776   -126.312856
PG17 -13846.171067 -19343.728061 -11440.076697    218.867332
PG18  17175.775139 -19954.657156   2599.933708      3.434328
PG19 -15538.657451 -12236.195069 -18019.654171   -196.424965
PG20  11957.141813  14439.458550  18803.547033    527.871754
PG21   3695.959217  18551.337150  19534.777847    -38.729059
PG22  15891.549132 -11682.144961 -17512.669370   -784.821978
PG23    859.395212 -22926.206429 -12690.984708   -135.190623
PG24 -13806.516088  22288.844922  -2932.594345     -9.313673
PG25   2778.174507  15600.222403 -21582.779305    -12.518045
PG26  26393.805217   3901.330318   -239.749476    151.750728
PG27  14917.569718  -1935.009796  21793.248948   -215.951600
PG28 -20692.378886 -13066.206705  10729.955102    738.153140
PG29   3563.313083  25689.616133  -5717.650852    -37.179066
PG30 -10949.471023 -11292.553524  21424.656453   -157.111911
PG31  18107.421998    331.055471 -19617.662799    -24.311617
PG32  15710.681174  17798.054320 -11986.533452    216.624000
PJ01 -25274.684403  23242.304804  29574.726204   -325.745478
PJ02 -35998.066732  18381.380742  -7521.970156     -1.420191
PJ03 -19655.784884  27681.727471 -20348.917897     -0.600494
PR01 -12269.431553 -17954.417297 -13344.182801     57.343321
PR02 -20807.381249 -12771.023807   7329.564430    412.767650
PR03 -15121.906453    235.214094  20565.423954     10.278010
PR04   -758.984867  12786.611383  22083.754020     39.309100
PR05  13974.882271  18260.297692  11075.469664     45.316306
PR07  14816.750912   -571.596602 -20733.698825    -33.411668
PR08    858.573390 -12839.278741 -21970.737120    -50.611398
PR09  22060.248456  -1747.062334 -12620.104983    117.705706
PR11  12428.091835 -13762.826540  17505.018462    -14.046171
PR12  -4792.640416  -9858.794894  23053.600287    107.176344
PR13 -20303.892208     33.493115  15416.494137    -34.999714
PR14 -23649.866798   9488.958872  -1215.208408     48.312281
PR15 -13352.690586  13576.736572 -16951.511883    105.967477
PR16   5651.014950   9684.647162 -22942.922439     -1.586479
PR17 -11176.982039  11101.218493 -20036.029340    302.412161
PR18  -7146.381467  23590.779765  -6660.263846     25.701924
PR19    -84.568210  23485.633631   9963.241983    -79.914022
PR20   8543.654092   8535.996023  22489.176758   -404.542941
PR21  11075.019267 -11993.625507  19614.768621   -106.017288
PR22   6149.990300 -24371.449112   3951.670568    -14.660001
PR23  -3485.699541 -20017.466767 -15419.041589    287.474269
PR26   7358.094187  12531.363510  20973.008000   -406.405252
EOF
